[{"OBJECT_NAME":"STARLINK-34755","OBJECT_ID":"2025-158J","EPOCH":"2026-03-09T14:46:16.628736","MEAN_MOTION":15.01256845,"ECCENTRICITY":0.0001828,"INCLINATION":97.6011,"RA_OF_ASC_NODE":294.6464,"ARG_OF_PERICENTER":46.7056,"MEAN_ANOMALY":313.4321,"EPHEMERIS_TYPE":0,"CLASSIFICATION_TYPE":"U","NORAD_CAT_ID":64940,"ELEMENT_SET_NO":999,"REV_AT_EPOCH":3538,"BSTAR":3.0929e-5,"MEAN_MOTION_DOT":3.39e-6,"MEAN_MOTION_DDOT":0},{"OBJECT_NAME":"ELECTRON KICK STAGE R\/B","OBJECT_ID":"2024-114G","EPOCH":"2026-03-09T16:42:35.427168","MEAN_MOTION":15.12630878,"ECCENTRICITY":0.00674954,"INCLINATION":97.9507,"RA_OF_ASC_NODE":118.387,"ARG_OF_PERICENTER":79.3604,"MEAN_ANOMALY":281.5218,"EPHEMERIS_TYPE":0,"CLASSIFICATION_TYPE":"U","NORAD_CAT_ID":60085,"ELEMENT_SET_NO":999,"REV_AT_EPOCH":9434,"BSTAR":0.00053349816,"MEAN_MOTION_DOT":9.787e-5,"MEAN_MOTION_DDOT":0}]
